{
 "generated_at": "2026-07-15T07:14:44Z",
 "sources": [
  {
   "name": "CelesTrak",
   "url": "https://celestrak.org/NORAD/elements/",
   "license": "frei verfügbar; Attribution. Ursprünglich USSPACECOM/Space-Track."
  },
  {
   "name": "GCAT (J. McDowell, planet4589.org)",
   "url": "https://planet4589.org/space/gcat/",
   "license": "CC-BY 4.0"
  }
 ],
 "satellites": [
  {
   "norad": 60549,
   "name": "ICEYE-X40",
   "intl": "2024-149CK",
   "group": "sar",
   "gcat": {
    "class": "B",
    "category": "IMG-R",
    "owner": "ALYAH",
    "state": "UAE"
   },
   "omm": {
    "OBJECT_NAME": "ICEYE-X40",
    "OBJECT_ID": "2024-149CK",
    "EPOCH": "2026-07-14T18:09:02.897856",
    "MEAN_MOTION": 14.98068753,
    "ECCENTRICITY": 0.00039719,
    "INCLINATION": 97.6797,
    "RA_OF_ASC_NODE": 271.8091,
    "ARG_OF_PERICENTER": 7.7825,
    "MEAN_ANOMALY": 352.3459,
    "EPHEMERIS_TYPE": 0,
    "CLASSIFICATION_TYPE": "U",
    "NORAD_CAT_ID": 60549,
    "ELEMENT_SET_NO": 999,
    "REV_AT_EPOCH": 10420,
    "BSTAR": 0.0001247155,
    "MEAN_MOTION_DOT": 0.00001417,
    "MEAN_MOTION_DDOT": 0
   }
  },
  {
   "norad": 62700,
   "name": "ICEYE-X41",
   "intl": "2025-009CV",
   "group": "sar",
   "gcat": {
    "class": "B",
    "category": "IMG-R",
    "owner": "ICEUS",
    "state": "US"
   },
   "omm": {
    "OBJECT_NAME": "ICEYE-X41",
    "OBJECT_ID": "2025-009CV",
    "EPOCH": "2026-07-14T19:30:03.468960",
    "MEAN_MOTION": 14.96911424,
    "ECCENTRICITY": 0.00002966,
    "INCLINATION": 97.706,
    "RA_OF_ASC_NODE": 274.9383,
    "ARG_OF_PERICENTER": 299.9754,
    "MEAN_ANOMALY": 60.1439,
    "EPHEMERIS_TYPE": 0,
    "CLASSIFICATION_TYPE": "U",
    "NORAD_CAT_ID": 62700,
    "ELEMENT_SET_NO": 999,
    "REV_AT_EPOCH": 8154,
    "BSTAR": 0.00013551708,
    "MEAN_MOTION_DOT": 0.00001498,
    "MEAN_MOTION_DDOT": 0
   }
  },
  {
   "norad": 62698,
   "name": "ICEYE-X42",
   "intl": "2025-009CT",
   "group": "sar",
   "gcat": {
    "class": "B",
    "category": "IMG-R",
    "owner": "SP42",
    "state": "UAE"
   },
   "omm": {
    "OBJECT_NAME": "ICEYE-X42",
    "OBJECT_ID": "2025-009CT",
    "EPOCH": "2026-07-14T18:34:12.521856",
    "MEAN_MOTION": 14.9185325,
    "ECCENTRICITY": 0.00012997,
    "INCLINATION": 97.739,
    "RA_OF_ASC_NODE": 273.5914,
    "ARG_OF_PERICENTER": 96.7593,
    "MEAN_ANOMALY": 263.3773,
    "EPHEMERIS_TYPE": 0,
    "CLASSIFICATION_TYPE": "U",
    "NORAD_CAT_ID": 62698,
    "ELEMENT_SET_NO": 999,
    "REV_AT_EPOCH": 8140,
    "BSTAR": 0.00011309397,
    "MEAN_MOTION_DOT": 0.00001087,
    "MEAN_MOTION_DDOT": 0
   }
  },
  {
   "norad": 60539,
   "name": "ICEYE-X43",
   "intl": "2024-149BZ",
   "group": "sar",
   "gcat": {
    "class": "B",
    "category": "IMG-R",
    "owner": "FAB/ICEYE",
    "state": "BR"
   },
   "omm": {
    "OBJECT_NAME": "ICEYE-X43",
    "OBJECT_ID": "2024-149BZ",
    "EPOCH": "2026-07-14T18:49:48.533664",
    "MEAN_MOTION": 14.99785896,
    "ECCENTRICITY": 0.00065895,
    "INCLINATION": 97.68,
    "RA_OF_ASC_NODE": 272.3796,
    "ARG_OF_PERICENTER": 349.7264,
    "MEAN_ANOMALY": 10.3824,
    "EPHEMERIS_TYPE": 0,
    "CLASSIFICATION_TYPE": "U",
    "NORAD_CAT_ID": 60539,
    "ELEMENT_SET_NO": 999,
    "REV_AT_EPOCH": 10425,
    "BSTAR": 0.000070364235,
    "MEAN_MOTION_DOT": 0.00000811,
    "MEAN_MOTION_DDOT": 0
   }
  },
  {
   "norad": 62707,
   "name": "ICEYE-X44",
   "intl": "2025-009DC",
   "group": "sar",
   "gcat": {
    "class": "B",
    "category": "IMG-R",
    "owner": "SP42",
    "state": "UAE"
   },
   "omm": {
    "OBJECT_NAME": "ICEYE-X44",
    "OBJECT_ID": "2025-009DC",
    "EPOCH": "2026-07-14T18:35:28.668768",
    "MEAN_MOTION": 14.96166017,
    "ECCENTRICITY": 0.00025483,
    "INCLINATION": 97.7059,
    "RA_OF_ASC_NODE": 274.4652,
    "ARG_OF_PERICENTER": 72.9033,
    "MEAN_ANOMALY": 287.2467,
    "EPHEMERIS_TYPE": 0,
    "CLASSIFICATION_TYPE": "U",
    "NORAD_CAT_ID": 62707,
    "ELEMENT_SET_NO": 999,
    "REV_AT_EPOCH": 10406,
    "BSTAR": 0.00017539667,
    "MEAN_MOTION_DOT": 0.00001918,
    "MEAN_MOTION_DDOT": 0
   }
  },
  {
   "norad": 62705,
   "name": "ICEYE-X45",
   "intl": "2025-009DA",
   "group": "sar",
   "gcat": {
    "class": "B",
    "category": "IMG-R",
    "owner": "ICEUS",
    "state": "US"
   },
   "omm": {
    "OBJECT_NAME": "ICEYE-X45",
    "OBJECT_ID": "2025-009DA",
    "EPOCH": "2026-07-14T20:44:58.199136",
    "MEAN_MOTION": 15.00838748,
    "ECCENTRICITY": 0.00011833,
    "INCLINATION": 97.8415,
    "RA_OF_ASC_NODE": 282.7786,
    "ARG_OF_PERICENTER": 92.7384,
    "MEAN_ANOMALY": 267.3975,
    "EPHEMERIS_TYPE": 0,
    "CLASSIFICATION_TYPE": "U",
    "NORAD_CAT_ID": 62705,
    "ELEMENT_SET_NO": 999,
    "REV_AT_EPOCH": 8183,
    "BSTAR": 0.00042108709,
    "MEAN_MOTION_DOT": 0.00005292,
    "MEAN_MOTION_DDOT": 0
   }
  },
  {
   "norad": 63258,
   "name": "ICEYE-X46",
   "intl": "2025-052BA",
   "group": "sar",
   "gcat": {
    "class": "B",
    "category": "IMG-R",
    "owner": "ICEYE",
    "state": "FI"
   },
   "omm": {
    "OBJECT_NAME": "ICEYE-X46",
    "OBJECT_ID": "2025-052BA",
    "EPOCH": "2026-07-14T15:46:33.514176",
    "MEAN_MOTION": 14.9536639,
    "ECCENTRICITY": 0.00017049,
    "INCLINATION": 97.686,
    "RA_OF_ASC_NODE": 87.0205,
    "ARG_OF_PERICENTER": 82.4988,
    "MEAN_ANOMALY": 277.6426,
    "EPHEMERIS_TYPE": 0,
    "CLASSIFICATION_TYPE": "U",
    "NORAD_CAT_ID": 63258,
    "ELEMENT_SET_NO": 999,
    "REV_AT_EPOCH": 7275,
    "BSTAR": 0.00011391358,
    "MEAN_MOTION_DOT": 0.00001201,
    "MEAN_MOTION_DDOT": 0
   }
  },
  {
   "norad": 62389,
   "name": "ICEYE-X47",
   "intl": "2024-247N",
   "group": "sar",
   "gcat": {
    "class": "B",
    "category": "IMG-R",
    "owner": "ICEYE",
    "state": "FI"
   },
   "omm": {
    "OBJECT_NAME": "ICEYE-X47",
    "OBJECT_ID": "2024-247N",
    "EPOCH": "2026-07-14T09:45:07.367328",
    "MEAN_MOTION": 15.13483146,
    "ECCENTRICITY": 0.00014962,
    "INCLINATION": 44.9951,
    "RA_OF_ASC_NODE": 211.5966,
    "ARG_OF_PERICENTER": 343.0956,
    "MEAN_ANOMALY": 16.9872,
    "EPHEMERIS_TYPE": 0,
    "CLASSIFICATION_TYPE": "U",
    "NORAD_CAT_ID": 62389,
    "ELEMENT_SET_NO": 999,
    "REV_AT_EPOCH": 8630,
    "BSTAR": 0.000061032488,
    "MEAN_MOTION_DOT": 0.00000854,
    "MEAN_MOTION_DDOT": 0
   }
  },
  {
   "norad": 63253,
   "name": "ICEYE-X48",
   "intl": "2025-052AV",
   "group": "sar",
   "gcat": {
    "class": "B",
    "category": "IMG-R",
    "owner": "ICEUS",
    "state": "US"
   },
   "omm": {
    "OBJECT_NAME": "ICEYE-X48",
    "OBJECT_ID": "2025-052AV",
    "EPOCH": "2026-07-14T17:01:37.845120",
    "MEAN_MOTION": 14.98123913,
    "ECCENTRICITY": 0.00039267,
    "INCLINATION": 97.6838,
    "RA_OF_ASC_NODE": 87.4742,
    "ARG_OF_PERICENTER": 105.5467,
    "MEAN_ANOMALY": 254.6189,
    "EPHEMERIS_TYPE": 0,
    "CLASSIFICATION_TYPE": "U",
    "NORAD_CAT_ID": 63253,
    "ELEMENT_SET_NO": 999,
    "REV_AT_EPOCH": 7279,
    "BSTAR": 0.00015306329,
    "MEAN_MOTION_DOT": 0.00001755,
    "MEAN_MOTION_DDOT": 0
   }
  },
  {
   "norad": 62384,
   "name": "ICEYE-X49",
   "intl": "2024-247H",
   "group": "sar",
   "gcat": {
    "class": "B",
    "category": "IMG-R",
    "owner": "ICEYE",
    "state": "FI"
   },
   "omm": {
    "OBJECT_NAME": "ICEYE-X49",
    "OBJECT_ID": "2024-247H",
    "EPOCH": "2026-07-13T10:34:12.990432",
    "MEAN_MOTION": 15.13608718,
    "ECCENTRICITY": 0.00014215,
    "INCLINATION": 44.9963,
    "RA_OF_ASC_NODE": 217.1632,
    "ARG_OF_PERICENTER": 241.3726,
    "MEAN_ANOMALY": 118.7009,
    "EPHEMERIS_TYPE": 0,
    "CLASSIFICATION_TYPE": "U",
    "NORAD_CAT_ID": 62384,
    "ELEMENT_SET_NO": 999,
    "REV_AT_EPOCH": 8615,
    "BSTAR": 0.000095124861,
    "MEAN_MOTION_DOT": 0.0000148,
    "MEAN_MOTION_DDOT": 0
   }
  }
 ]
}
